*******************************************************************************
Ephemeris / WWW_USER Mon Mar 10 06:49:48 2025 Pasadena, USA      / Horizons    
*******************************************************************************
Target body name: (2018 VS8)                      {source: JPL#8}
Center body name: Earth (399)                     {source: DE441}
Center-site name: Mauna Kea
*******************************************************************************
Start time      : A.D. 2018-Aug-22 04:55:00.0000 UT      
Stop  time      : A.D. 2018-Aug-22 15:54:00.0000 UT      
Step-size       : 1 minutes
*******************************************************************************
Target pole/equ : undefined
Target radii    : undefined                                                    
Center geodetic : 204.5278, 19.8260847, 4.21024   {E-lon(deg),Lat(deg),Alt(km)}
Center cylindric: 204.5278, 6006.35451, 2151.0229 {E-lon(deg),Dxy(km),Dz(km)}
Center pole/equ : ITRF93                          {East-longitude positive}
Center radii    : 6378.137, 6378.137, 6356.752 km {Equator_a, b, pole_c}       
Target primary  : Sun
Vis. interferer : MOON (R_eq= 1737.400) km        {source: DE441}
Rel. light bend : Sun                             {source: DE441}
Rel. lght bnd GM: 1.3271E+11 km^3/s^2                                          
Small-body perts: Yes                             {source: SB441-N16}
Atmos refraction: NO (AIRLESS)
RA format       : HMS
Time format     : CAL 
Calendar mode   : Mixed Julian/Gregorian
RTS-only print  : NO       
EOP file        : eop.250307.p250603                                           
EOP coverage    : DATA-BASED 1962-JAN-20 TO 2025-MAR-07. PREDICTS-> 2025-JUN-02
Units conversion: 1 au= 149597870.700 km, c= 299792.458 km/s, 1 day= 86400.0 s 
Table cut-offs 1: Elevation (-90.0deg=NO ),Airmass (>38.000=NO), Daylight (YES)
Table cut-offs 2: Solar elongation (  0.0,180.0=NO ),Local Hour Angle( 0.0=NO )
Table cut-offs 3: RA/DEC angular rate (     0.0=NO )                           
*******************************************************************************
Initial IAU76/J2000 heliocentric ecliptic osculating elements (au, days, deg.):
  EPOCH=  2458433.5 ! 2018-Nov-11.00 (TDB)         Residual RMS= .33953        
   EC= .5263784885368822   QR= .9373233613851428   TP= 2458465.1575556668      
   OM= 53.89076972236643   W=  33.71683445616237   IN= 3.430463171034721       
  Equivalent ICRF heliocentric cartesian coordinates (au, au/d):
   X= 6.888560011548344E-01  Y= 6.928655939663307E-01  Z= 2.929974091538562E-01
  VX=-1.813811938800288E-02 VY= 8.693003909227039E-03 VZ= 5.111678677431928E-03
Asteroid physical parameters (km, seconds, rotational period in hours):        
   GM= n.a.                RAD= n.a.               ROTPER= n.a.                
   H= 27.2                 G= .150                 B-V= n.a.                   
                           ALBEDO= n.a.            STYP= n.a.                  
*******************************************************************************
 Date__(UT)__HR:MN     R.A._________(ICRF)_________DEC
******************************************************
$$SOE
 2018-Aug-22 06:58  m  01 02 50.493093 -01 02 06.97361
 2018-Aug-22 06:59  m  01 02 50.533264 -01 02 06.91496
 2018-Aug-22 07:00  m  01 02 50.573419 -01 02 06.85631
 2018-Aug-22 07:01  m  01 02 50.613560 -01 02 06.79767
 2018-Aug-22 07:02  m  01 02 50.653685 -01 02 06.73903
 2018-Aug-22 07:03  m  01 02 50.693794 -01 02 06.68039
 2018-Aug-22 07:04  m  01 02 50.733889 -01 02 06.62176
 2018-Aug-22 07:05  m  01 02 50.773968 -01 02 06.56314
 2018-Aug-22 07:06  m  01 02 50.814031 -01 02 06.50452
 2018-Aug-22 07:07  m  01 02 50.854079 -01 02 06.44590
 2018-Aug-22 07:08  m  01 02 50.894112 -01 02 06.38729
 2018-Aug-22 07:09  m  01 02 50.934129 -01 02 06.32868
 2018-Aug-22 07:10  m  01 02 50.974131 -01 02 06.27008
 2018-Aug-22 07:11  m  01 02 51.014117 -01 02 06.21148
 2018-Aug-22 07:12  m  01 02 51.054088 -01 02 06.15289
 2018-Aug-22 07:13  m  01 02 51.094044 -01 02 06.09430
 2018-Aug-22 07:14  r  01 02 51.133984 -01 02 06.03572
 2018-Aug-22 07:15  m  01 02 51.173909 -01 02 05.97714
 2018-Aug-22 07:16  m  01 02 51.213818 -01 02 05.91857
 2018-Aug-22 07:17  m  01 02 51.253712 -01 02 05.86000
 2018-Aug-22 07:18  m  01 02 51.293590 -01 02 05.80143
 2018-Aug-22 07:19  m  01 02 51.333453 -01 02 05.74287
 2018-Aug-22 07:20  m  01 02 51.373301 -01 02 05.68431
 2018-Aug-22 07:21  m  01 02 51.413133 -01 02 05.62576
 2018-Aug-22 07:22  m  01 02 51.452949 -01 02 05.56721
 2018-Aug-22 07:23  m  01 02 51.492751 -01 02 05.50867
 2018-Aug-22 07:24  m  01 02 51.532536 -01 02 05.45013
 2018-Aug-22 07:25  m  01 02 51.572307 -01 02 05.39159
 2018-Aug-22 07:26  m  01 02 51.612061 -01 02 05.33306
 2018-Aug-22 07:27  m  01 02 51.651801 -01 02 05.27454
 2018-Aug-22 07:28  m  01 02 51.691525 -01 02 05.21601
 2018-Aug-22 07:29  m  01 02 51.731233 -01 02 05.15750
 2018-Aug-22 07:30  m  01 02 51.770926 -01 02 05.09898
 2018-Aug-22 07:31  m  01 02 51.810604 -01 02 05.04047
 2018-Aug-22 07:32  m  01 02 51.850266 -01 02 04.98197
 2018-Aug-22 07:33  m  01 02 51.889912 -01 02 04.92347
 2018-Aug-22 07:34  m  01 02 51.929543 -01 02 04.86497
 2018-Aug-22 07:35  m  01 02 51.969159 -01 02 04.80648
 2018-Aug-22 07:36  m  01 02 52.008760 -01 02 04.74799
 2018-Aug-22 07:37  m  01 02 52.048344 -01 02 04.68951
 2018-Aug-22 07:38  m  01 02 52.087914 -01 02 04.63103
 2018-Aug-22 07:39  m  01 02 52.127468 -01 02 04.57255
 2018-Aug-22 07:40  m  01 02 52.167006 -01 02 04.51408
 2018-Aug-22 07:41  m  01 02 52.206530 -01 02 04.45561
 2018-Aug-22 07:42  m  01 02 52.246037 -01 02 04.39715
 2018-Aug-22 07:43  m  01 02 52.285530 -01 02 04.33869
 2018-Aug-22 07:44  m  01 02 52.325007 -01 02 04.28023
 2018-Aug-22 07:45  m  01 02 52.364468 -01 02 04.22178
 2018-Aug-22 07:46  m  01 02 52.403914 -01 02 04.16334
 2018-Aug-22 07:47  m  01 02 52.443345 -01 02 04.10489
 2018-Aug-22 07:48  m  01 02 52.482760 -01 02 04.04645
 2018-Aug-22 07:49  m  01 02 52.522160 -01 02 03.98802
 2018-Aug-22 07:50  m  01 02 52.561545 -01 02 03.92959
 2018-Aug-22 07:51  m  01 02 52.600914 -01 02 03.87116
 2018-Aug-22 07:52  m  01 02 52.640268 -01 02 03.81274
 2018-Aug-22 07:53  m  01 02 52.679606 -01 02 03.75432
 2018-Aug-22 07:54  m  01 02 52.718930 -01 02 03.69590
 2018-Aug-22 07:55  m  01 02 52.758237 -01 02 03.63749
 2018-Aug-22 07:56  m  01 02 52.797530 -01 02 03.57908
 2018-Aug-22 07:57  m  01 02 52.836807 -01 02 03.52068
 2018-Aug-22 07:58  m  01 02 52.876069 -01 02 03.46228
 2018-Aug-22 07:59  m  01 02 52.915316 -01 02 03.40388
 2018-Aug-22 08:00  m  01 02 52.954547 -01 02 03.34549
 2018-Aug-22 08:01  m  01 02 52.993763 -01 02 03.28710
 2018-Aug-22 08:02  m  01 02 53.032964 -01 02 03.22871
 2018-Aug-22 08:03  m  01 02 53.072149 -01 02 03.17033
 2018-Aug-22 08:04  m  01 02 53.111319 -01 02 03.11196
 2018-Aug-22 08:05  m  01 02 53.150474 -01 02 03.05358
 2018-Aug-22 08:06  m  01 02 53.189614 -01 02 02.99521
 2018-Aug-22 08:07  m  01 02 53.228739 -01 02 02.93685
 2018-Aug-22 08:08  m  01 02 53.267848 -01 02 02.87848
 2018-Aug-22 08:09  m  01 02 53.306942 -01 02 02.82012
 2018-Aug-22 08:10  m  01 02 53.346021 -01 02 02.76177
 2018-Aug-22 08:11  m  01 02 53.385085 -01 02 02.70342
 2018-Aug-22 08:12  m  01 02 53.424133 -01 02 02.64507
 2018-Aug-22 08:13  m  01 02 53.463167 -01 02 02.58672
 2018-Aug-22 08:14  m  01 02 53.502185 -01 02 02.52838
 2018-Aug-22 08:15  m  01 02 53.541188 -01 02 02.47005
 2018-Aug-22 08:16  m  01 02 53.580177 -01 02 02.41171
 2018-Aug-22 08:17  m  01 02 53.619150 -01 02 02.35338
 2018-Aug-22 08:18  m  01 02 53.658108 -01 02 02.29505
 2018-Aug-22 08:19  m  01 02 53.697050 -01 02 02.23673
 2018-Aug-22 08:20  m  01 02 53.735978 -01 02 02.17841
 2018-Aug-22 08:21  m  01 02 53.774891 -01 02 02.12009
 2018-Aug-22 08:22  m  01 02 53.813789 -01 02 02.06178
 2018-Aug-22 08:23  m  01 02 53.852672 -01 02 02.00347
 2018-Aug-22 08:24  m  01 02 53.891540 -01 02 01.94517
 2018-Aug-22 08:25  m  01 02 53.930393 -01 02 01.88686
 2018-Aug-22 08:26  m  01 02 53.969231 -01 02 01.82856
 2018-Aug-22 08:27  m  01 02 54.008054 -01 02 01.77027
 2018-Aug-22 08:28  m  01 02 54.046862 -01 02 01.71197
 2018-Aug-22 08:29  m  01 02 54.085655 -01 02 01.65369
 2018-Aug-22 08:30  m  01 02 54.124433 -01 02 01.59540
 2018-Aug-22 08:31  m  01 02 54.163197 -01 02 01.53712
 2018-Aug-22 08:32  m  01 02 54.201945 -01 02 01.47884
 2018-Aug-22 08:33  m  01 02 54.240679 -01 02 01.42056
 2018-Aug-22 08:34  m  01 02 54.279398 -01 02 01.36229
 2018-Aug-22 08:35  m  01 02 54.318103 -01 02 01.30402
 2018-Aug-22 08:36  m  01 02 54.356792 -01 02 01.24575
 2018-Aug-22 08:37  m  01 02 54.395467 -01 02 01.18749
 2018-Aug-22 08:38  m  01 02 54.434127 -01 02 01.12923
 2018-Aug-22 08:39  m  01 02 54.472772 -01 02 01.07097
 2018-Aug-22 08:40  m  01 02 54.511403 -01 02 01.01272
 2018-Aug-22 08:41  m  01 02 54.550019 -01 02 00.95447
 2018-Aug-22 08:42  m  01 02 54.588620 -01 02 00.89622
 2018-Aug-22 08:43  m  01 02 54.627207 -01 02 00.83798
 2018-Aug-22 08:44  m  01 02 54.665779 -01 02 00.77974
 2018-Aug-22 08:45  m  01 02 54.704336 -01 02 00.72150
 2018-Aug-22 08:46  m  01 02 54.742879 -01 02 00.66326
 2018-Aug-22 08:47  m  01 02 54.781408 -01 02 00.60503
 2018-Aug-22 08:48  m  01 02 54.819922 -01 02 00.54680
 2018-Aug-22 08:49  m  01 02 54.858421 -01 02 00.48858
 2018-Aug-22 08:50  m  01 02 54.896906 -01 02 00.43035
 2018-Aug-22 08:51  m  01 02 54.935377 -01 02 00.37214
 2018-Aug-22 08:52  m  01 02 54.973833 -01 02 00.31392
 2018-Aug-22 08:53  m  01 02 55.012275 -01 02 00.25570
 2018-Aug-22 08:54  m  01 02 55.050702 -01 02 00.19749
 2018-Aug-22 08:55  m  01 02 55.089115 -01 02 00.13929
 2018-Aug-22 08:56  m  01 02 55.127514 -01 02 00.08108
 2018-Aug-22 08:57  m  01 02 55.165899 -01 02 00.02288
 2018-Aug-22 08:58  m  01 02 55.204269 -01 01 59.96468
 2018-Aug-22 08:59  m  01 02 55.242625 -01 01 59.90648
 2018-Aug-22 09:00  m  01 02 55.280967 -01 01 59.84829
